BEIDOU-2 IGSO-1 (C06)   
1 36828U 10036A   24176.90561031 -.00000076  00000+0  00000+0 0  9994
2 36828  54.2555 169.4931 0042115 207.1207 330.7155  1.00280018 50964
BEIDOU-2 G4 (C04)       
1 37210U 10057A   24176.84426014 -.00000105  00000+0  00000+0 0  9990
2 37210   1.8627  68.9276 0003426 155.3266 153.2066  1.00270322 50049
BEIDOU-2 IGSO-2 (C07)   
1 37256U 10068A   24176.07690286 -.00000183  00000+0  00000+0 0  9997
2 37256  48.8659 280.7408 0036145 210.2917 273.6201  1.00247740 49543
BEIDOU-2 IGSO-3 (C08)   
1 37384U 11013A   24176.93180694 -.00000175  00000+0  00000+0 0  9993
2 37384  61.3608  47.0356 0026909 174.1071 134.0351  1.00256453 48413
BEIDOU-2 IGSO-4 (C09)   
1 37763U 11038A   24176.79176495  .00000052  00000+0  00000+0 0  9992
2 37763  54.5608 172.1059 0126041 229.0190 251.3613  1.00257464 47403
BEIDOU-2 IGSO-5 (C10)   
1 37948U 11073A   24176.75958398 -.00000155  00000+0  00000+0 0  9997
2 37948  48.9970 280.4193 0101072 220.2504 140.0786  1.00291867 45899
BEIDOU-2 G5 (C05)       
1 38091U 12008A   24176.89568973  .00000064  00000+0  00000+0 0  9995
2 38091   2.0940  70.9539 0005054 271.8481 311.8166  1.00272593 45123
BEIDOU-2 M3 (C11)       
1 38250U 12018A   24175.91319595 -.00000065  00000+0  00000+0 0  9991
2 38250  56.3345 329.1183 0021059 261.9539  97.7988  1.86231184 82478
BEIDOU-2 M4 (C12)       
1 38251U 12018B   24174.23250702 -.00000068  00000+0  00000+0 0  9993
2 38251  56.2426 328.4454 0011917 263.1136  96.7409  1.86231937 82440
BEIDOU-2 M6 (C14)       
1 38775U 12050B   24176.08987287 -.00000014  00000+0  00000+0 0  9991
2 38775  55.9177  86.9323 0013732 340.8827  19.0857  1.86231089 79841
BEIDOU-2 G6 (C02)       
1 38953U 12059A   24176.75758247 -.00000169  00000+0  00000+0 0  9995
2 38953   2.5785  80.4691 0009574 319.5405 230.1846  1.00270700 42666
BEIDOU-3S IGSO-1S (C31) 
1 40549U 15019A   24172.84510329 -.00000157  00000+0  00000+0 0  9998
2 40549  50.5681 304.1498 0038536 192.5606 166.9884  1.00250064 33783
BEIDOU-3S M2S (C58)     
1 40748U 15037A   24176.04353949 -.00000065  00000+0  00000+0 0  9996
2 40748  55.4730 326.8017 0008728 246.3444 113.5559  1.86233125 60655
BEIDOU-3S M1S (C57)     
1 40749U 15037B   24175.24004293 -.00000066  00000+0  00000+0 0  9994
2 40749  55.4765 326.8161 0003080 358.0680   1.9214  1.86232887 60644
BEIDOU-3S IGSO-2S (C56) 
1 40938U 15053A   24176.07854522 -.00000113  00000+0  00000+0 0  9995
2 40938  50.3458 267.3273 0052839 190.5031 298.3080  1.00260660 32104
BEIDOU-2 IGSO-6 (C13)   
1 41434U 16021A   24175.60582760 -.00000153  00000+0  00000+0 0  9997
2 41434  59.1851  45.2823 0047890 222.2792 318.4749  1.00269646 30211
BEIDOU-2 G7 (C03)       
1 41586U 16037A   24176.88660370 -.00000347  00000+0  00000+0 0  9992
2 41586   1.9247  69.7675 0009188   6.6884 266.7865  1.00270412 29544
BEIDOU-3 M1 (C19)       
1 43001U 17069A   24176.39284814 -.00000013  00000+0  00000+0 0  9993
2 43001  56.0681  87.0200 0010436 309.2817  50.6471  1.86231341 45143
BEIDOU-3 M2 (C20)       
1 43002U 17069B   24176.33011160 -.00000013  00000+0  00000+0 0  9990
2 43002  56.0675  87.0577 0008807 333.6447  26.3315  1.86230931 45133
BEIDOU-3 M7 (C27)       
1 43107U 18003A   24176.07911960 -.00000066  00000+0  00000+0 0  9991
2 43107  54.9311 327.3883 0004645  79.0854 280.9594  1.86232435 43880
BEIDOU-3 M8 (C28)       
1 43108U 18003B   24176.01960832 -.00000067  00000+0  00000+0 0  9999
2 43108  54.9241 327.3759 0002765 249.7707 110.1919  1.86230862 43897
BEIDOU-3 M4 (C22)       
1 43207U 18018A   24176.46093082 -.00000012  00000+0  00000+0 0  9998
2 43207  56.0270  87.1066 0006727 359.6655   0.3554  1.86231245 43283
BEIDOU-3 M3 (C21)       
1 43208U 18018B   24172.76882079 -.00000034  00000+0  00000+0 0  9994
2 43208  56.0237  87.2343 0008592 321.9626  37.9782  1.86231298 43218
BEIDOU-3 M9 (C29)       
1 43245U 18029A   24176.21169982 -.00000065  00000+0  00000+0 0  9996
2 43245  54.8144 325.0913 0000618 154.9788 205.0166  1.86232473 42435
BEIDOU-3 M10 (C30)      
1 43246U 18029B   24176.14137057 -.00000065  00000+0  00000+0 0  9997
2 43246  54.8114 325.1213 0003454  22.2768 337.7304  1.86232861 42419
BEIDOU-2 IGSO-7 (C16)   
1 43539U 18057A   24176.90578435 -.00000075  00000+0  00000+0 0  9997
2 43539  55.1447 169.3007 0075590 233.5846 306.7158  1.00250367 21899
BEIDOU-3 M5 (C23)       
1 43581U 18062A   24176.36452814  .00000084  00000+0  00000+0 0  9991
2 43581  54.1322 206.8895 0005369 274.6572  85.3522  1.86228640 40178
BEIDOU-3 M6 (C24)       
1 43582U 18062B   24176.23036836  .00000085  00000+0  00000+0 0  9991
2 43582  54.1319 206.8835 0004182 356.5008   3.5680  1.86229500 40178
BEIDOU-3 M12 (C26)      
1 43602U 18067A   24176.16363344  .00000087  00000+0  00000+0 0  9990
2 43602  54.2224 205.5676 0006651  17.6210 342.4721  1.86231634 39652
BEIDOU-3 M11 (C25)      
1 43603U 18067B   24176.29758137  .00000086  00000+0  00000+0 0  9992
2 43603  54.2196 205.5282 0003677 359.4235   0.6450  1.86231533 39686
BEIDOU-3 M13 (C32)      
1 43622U 18072A   24176.25864756 -.00000014  00000+0  00000+0 0  9992
2 43622  55.9980  86.6440 0007007 310.6132  49.3471  1.86231490 39197
BEIDOU-3 M14 (C33)      
1 43623U 18072B   24176.12410355 -.00000014  00000+0  00000+0 0  9991
2 43623  55.9998  86.6416 0005441 340.0169  19.9824  1.86231492 39183
BEIDOU-3 M16 (C35)      
1 43647U 18078A   24176.82368252 -.00000066  00000+0  00000+0 0  9995
2 43647  54.7100 325.1679 0006911  24.4178 335.6084  1.86232150 38704
BEIDOU-3 M15 (C34)      
1 43648U 18078B   24175.87895456 -.00000066  00000+0  00000+0 0  9991
2 43648  54.7064 325.2033 0004035  41.0740 318.9481  1.86232236 38704
BEIDOU-3 G1 (C59)       
1 43683U 18085A   24176.91187594 -.00000271  00000+0  00000+0 0  9999
2 43683   2.2104 109.3020 0004098 354.2185 278.3529  1.00270854 20813
BEIDOU-3 M17 (C36)      
1 43706U 18093A   24176.56633411  .00000083  00000+0  00000+0 0  9999
2 43706  54.2151 206.8215 0010244 279.6420  80.3115  1.86228270 38088
BEIDOU-3 M18 (C37)      
1 43707U 18093B   24176.43161998  .00000084  00000+0  00000+0 0  9993
2 43707  54.2159 206.8179 0008113 304.2481  55.7453  1.86229755 38079
BEIDOU-3 IGSO-1 (C38)   
1 44204U 19023A   24169.20542142 -.00000226  00000+0  00000+0 0  9990
2 44204  57.6415  45.2233 0018941 209.3642 200.6006  1.00249867 19025
BEIDOU-2 G8 (C01)       
1 44231U 19027A   24176.91274618 -.00000241  00000+0  00000+0 0  9997
2 44231   1.9670  73.9686 0002554 148.9639 163.7235  1.00273132 18830
BEIDOU-3 IGSO-2 (C39)   
1 44337U 19035A   24176.85631743 -.00000088  00000+0  00000+0 0  9991
2 44337  55.1816 165.2010 0035611 205.1348 328.0555  1.00294710 18453
BEIDOU-3 M24 (C46)      
1 44542U 19061A   24176.50116136  .00000084  00000+0  00000+0 0  9999
2 44542  54.4427 207.1115 0007655 341.9535  18.0898  1.86231253 32333
BEIDOU-3 M23 (C45)      
1 44543U 19061B   24175.61551314  .00000090  00000+0  00000+0 0  9999
2 44543  54.4412 207.1104 0005354 320.3853  78.1526  1.86231632 32318
BEIDOU-3 IGSO-3 (C40)   
1 44709U 19073A   24175.72519622 -.00000189  00000+0  00000+0 0  9994
2 44709  56.0384 288.6583 0039278 182.0502 177.9480  1.00247548 17183
BEIDOU-3 M22 (C44)      
1 44793U 19078A   24175.81000817 -.00000066  00000+0  00000+0 0  9997
2 44793  54.5585 325.1342 0005934  33.6057 326.4236  1.86232151 31173
BEIDOU-3 M21 (C43)      
1 44794U 19078B   24176.47673006 -.00000066  00000+0  00000+0 0  9997
2 44794  54.5317 325.0869 0003727  32.5046 327.5113  1.86232582 31190
BEIDOU-3 M19 (C41)      
1 44864U 19090A   24176.42506479 -.00000013  00000+0  00000+0 0  9995
2 44864  55.9321  86.8096 0017694 285.0498 233.1353  1.86231618 30776
BEIDOU-3 M20 (C42)      
1 44865U 19090B   24176.33584177 -.00000013  00000+0  00000+0 0  9997
2 44865  55.9337  86.8460 0015772 298.6613 249.4352  1.86231554 30759
BEIDOU-3 G2 (C60)       
1 45344U 20017A   24176.75679926 -.00000134  00000+0  00000+0 0  9998
2 45344   2.3242  29.9464 0001819 110.6149 125.2934  1.00270074 16015
BEIDOU-3 G3 (C61)       
1 45807U 20040A   24176.88660370 -.00000346  00000+0  00000+0 0  9990
2 45807   0.7893  43.3398 0004720 282.0158  17.8607  1.00266792 14829
BEIDOU-3 G4             
1 56564U 23066A   24176.84426014 -.00000103  00000+0  00000+0 0  9995
2 56564   2.1040 288.2034 0006027 202.1145 247.0642  1.00269764  4152
BEIDOU-3 M25            
1 58654U 23207A   24174.94866388 -.00000021  00000+0  00000+0 0  9994
2 58654  55.1143  86.8705 0002983 310.9136  49.0735  1.86232277  3355
BEIDOU-3 M26            
1 58655U 23207B   24176.35849675 -.00000015  00000+0  00000+0 0  9995
2 58655  55.1174  86.8078 0003218 284.0976  75.8871  1.86231920  3361
